{
    "week": 293,
    "satellites": [
        {
            "Name": "COSMOS 2485 (747)",
            "Line1": "1 39155U 13019A   24323.60125762  .00000008  00000+0  00000+0 0  9996",
            "Line2": "2 39155  65.1150  92.9689 0023379 227.4951 132.2852  2.13104319 90017",
            "SatelliteNumber": "39155",
            "Classification": "U",
            "LaunchYear": "13",
            "LaunchNumber": "019",
            "PieceOfLaunch": "A",
            "EpochYear": "24",
            "EpochDay": 323.60125762,
            "FirstDerivativeMeanMotion": 8e-08,
            "SecondDerivativeMeanMotion": "00000+0",
            "BSTAR": "00000+0",
            "SetNumber": "999",
            "Inclination": 65.115,
            "RAAN": 92.9689,
            "Eccentricity": 0.0023379,
            "ArgumentOfPerigee": 227.4951,
            "MeanAnomaly": 132.2852,
            "MeanMotion": 2.13104319,
            "RevolutionNumber": "9001"
        },
        {
            "Name": "COSMOS 2492 (754)",
            "Line1": "1 39620U 14012A   24323.08722325 -.00000056  00000+0  00000+0 0  9991",
            "Line2": "2 39620  65.6075 333.4470 0014224 309.6715  50.2343  2.13103141 82967",
            "SatelliteNumber": "39620",
            "Classification": "U",
            "LaunchYear": "14",
            "LaunchNumber": "012",
            "PieceOfLaunch": "A",
            "EpochYear": "24",
            "EpochDay": 323.08722325,
            "FirstDerivativeMeanMotion": -5.6e-07,
            "SecondDerivativeMeanMotion": "00000+0",
            "BSTAR": "00000+0",
            "SetNumber": "999",
            "Inclination": 65.6075,
            "RAAN": 333.447,
            "Eccentricity": 0.0014224,
            "ArgumentOfPerigee": 309.6715,
            "MeanAnomaly": 50.2343,
            "MeanMotion": 2.13103141,
            "RevolutionNumber": "8296"
        },
        {
            "Name": "COSMOS 2500 (755)",
            "Line1": "1 40001U 14032A   24323.73381842 -.00000056  00000+0  00000+0 0  9995",
            "Line2": "2 40001  65.5440 333.2180 0008673 219.7168 140.2491  2.13105891 81199",
            "SatelliteNumber": "40001",
            "Classification": "U",
            "LaunchYear": "14",
            "LaunchNumber": "032",
            "PieceOfLaunch": "A",
            "EpochYear": "24",
            "EpochDay": 323.73381842,
            "FirstDerivativeMeanMotion": -5.6e-07,
            "SecondDerivativeMeanMotion": "00000+0",
            "BSTAR": "00000+0",
            "SetNumber": "999",
            "Inclination": 65.544,
            "RAAN": 333.218,
            "Eccentricity": 0.0008673,
            "ArgumentOfPerigee": 219.7168,
            "MeanAnomaly": 140.2491,
            "MeanMotion": 2.13105891,
            "RevolutionNumber": "8119"
        },
        {
            "Name": "COSMOS 2501 (702K)",
            "Line1": "1 40315U 14075A   24323.51958800  .00000030  00000+0  00000+0 0  9991",
            "Line2": "2 40315  63.6161 210.3163 0019389 205.9322 154.0535  2.13101352 77585",
            "SatelliteNumber": "40315",
            "Classification": "U",
            "LaunchYear": "14",
            "LaunchNumber": "075",
            "PieceOfLaunch": "A",
            "EpochYear": "24",
            "EpochDay": 323.519588,
            "FirstDerivativeMeanMotion": 3e-07,
            "SecondDerivativeMeanMotion": "00000+0",
            "BSTAR": "00000+0",
            "SetNumber": "999",
            "Inclination": 63.6161,
            "RAAN": 210.3163,
            "Eccentricity": 0.0019389,
            "ArgumentOfPerigee": 205.9322,
            "MeanAnomaly": 154.0535,
            "MeanMotion": 2.13101352,
            "RevolutionNumber": "7758"
        },
        {
            "Name": "COSMOS 2514 (751)",
            "Line1": "1 41330U 16008A   24323.50244426 -.00000056  00000+0  00000+0 0  9997",
            "Line2": "2 41330  65.3377 332.6962 0012760 220.8936 139.0396  2.13102559 68352",
            "SatelliteNumber": "41330",
            "Classification": "U",
            "LaunchYear": "16",
            "LaunchNumber": "008",
            "PieceOfLaunch": "A",
            "EpochYear": "24",
            "EpochDay": 323.50244426,
            "FirstDerivativeMeanMotion": -5.6e-07,
            "SecondDerivativeMeanMotion": "00000+0",
            "BSTAR": "00000+0",
            "SetNumber": "999",
            "Inclination": 65.3377,
            "RAAN": 332.6962,
            "Eccentricity": 0.001276,
            "ArgumentOfPerigee": 220.8936,
            "MeanAnomaly": 139.0396,
            "MeanMotion": 2.13102559,
            "RevolutionNumber": "6835"
        },
        {
            "Name": "COSMOS 2522 (752)",
            "Line1": "1 42939U 17055A   24323.34225965  .00000032  00000+0  00000+0 0  9998",
            "Line2": "2 42939  64.0777 211.5018 0006767 233.7229 126.2969  2.13101924 55707",
            "SatelliteNumber": "42939",
            "Classification": "U",
            "LaunchYear": "17",
            "LaunchNumber": "055",
            "PieceOfLaunch": "A",
            "EpochYear": "24",
            "EpochDay": 323.34225965,
            "FirstDerivativeMeanMotion": 3.2e-07,
            "SecondDerivativeMeanMotion": "00000+0",
            "BSTAR": "00000+0",
            "SetNumber": "999",
            "Inclination": 64.0777,
            "RAAN": 211.5018,
            "Eccentricity": 0.0006767,
            "ArgumentOfPerigee": 233.7229,
            "MeanAnomaly": 126.2969,
            "MeanMotion": 2.13101924,
            "RevolutionNumber": "5570"
        },
        {
            "Name": "COSMOS 2527 (756)",
            "Line1": "1 43508U 18053A   24322.83236804  .00000004  00000+0  00000+0 0  9996",
            "Line2": "2 43508  65.2741  93.1787 0008252 217.8931 142.0241  2.13102209 49995",
            "SatelliteNumber": "43508",
            "Classification": "U",
            "LaunchYear": "18",
            "LaunchNumber": "053",
            "PieceOfLaunch": "A",
            "EpochYear": "24",
            "EpochDay": 322.83236804,
            "FirstDerivativeMeanMotion": 4e-08,
            "SecondDerivativeMeanMotion": "00000+0",
            "BSTAR": "00000+0",
            "SetNumber": "999",
            "Inclination": 65.2741,
            "RAAN": 93.1787,
            "Eccentricity": 0.0008252,
            "ArgumentOfPerigee": 217.8931,
            "MeanAnomaly": 142.0241,
            "MeanMotion": 2.13102209,
            "RevolutionNumber": "4999"
        },
        {
            "Name": "COSMOS 2529 (757)",
            "Line1": "1 43687U 18086A   24323.40036964  .00000031  00000+0  00000+0 0  9999",
            "Line2": "2 43687  64.2934 212.0540 0008035 260.8050  99.1858  2.13101959 47012",
            "SatelliteNumber": "43687",
            "Classification": "U",
            "LaunchYear": "18",
            "LaunchNumber": "086",
            "PieceOfLaunch": "A",
            "EpochYear": "24",
            "EpochDay": 323.40036964,
            "FirstDerivativeMeanMotion": 3.1e-07,
            "SecondDerivativeMeanMotion": "00000+0",
            "BSTAR": "00000+0",
            "SetNumber": "999",
            "Inclination": 64.2934,
            "RAAN": 212.054,
            "Eccentricity": 0.0008035,
            "ArgumentOfPerigee": 260.805,
            "MeanAnomaly": 99.1858,
            "MeanMotion": 2.13101959,
            "RevolutionNumber": "4701"
        },
        {
            "Name": "COSMOS 2534 (758)",
            "Line1": "1 44299U 19030A   24323.39576851  .00000031  00000+0  00000+0 0  9991",
            "Line2": "2 44299  64.3667 212.0219 0010237 286.1633 204.5289  2.13101975 42657",
            "SatelliteNumber": "44299",
            "Classification": "U",
            "LaunchYear": "19",
            "LaunchNumber": "030",
            "PieceOfLaunch": "A",
            "EpochYear": "24",
            "EpochDay": 323.39576851,
            "FirstDerivativeMeanMotion": 3.1e-07,
            "SecondDerivativeMeanMotion": "00000+0",
            "BSTAR": "00000+0",
            "SetNumber": "999",
            "Inclination": 64.3667,
            "RAAN": 212.0219,
            "Eccentricity": 0.0010237,
            "ArgumentOfPerigee": 286.1633,
            "MeanAnomaly": 204.5289,
            "MeanMotion": 2.13101975,
            "RevolutionNumber": "4265"
        },
        {
            "Name": "COSMOS 2544 (759)",
            "Line1": "1 44850U 19088A   24323.71507358  .00000009  00000+0  00000+0 0  9994",
            "Line2": "2 44850  65.2611  92.9832 0012538 247.4856 112.3598  2.13102001 38439",
            "SatelliteNumber": "44850",
            "Classification": "U",
            "LaunchYear": "19",
            "LaunchNumber": "088",
            "PieceOfLaunch": "A",
            "EpochYear": "24",
            "EpochDay": 323.71507358,
            "FirstDerivativeMeanMotion": 9e-08,
            "SecondDerivativeMeanMotion": "00000+0",
            "BSTAR": "00000+0",
            "SetNumber": "999",
            "Inclination": 65.2611,
            "RAAN": 92.9832,
            "Eccentricity": 0.0012538,
            "ArgumentOfPerigee": 247.4856,
            "MeanAnomaly": 112.3598,
            "MeanMotion": 2.13102001,
            "RevolutionNumber": "3843"
        }
    ]
}